[{"OBJECT_NAME":"FENGYUN 1C DEB","OBJECT_ID":"1999-025BJL","EPOCH":"2026-04-04T10:33:06.467616","MEAN_MOTION":14.14735932,"ECCENTRICITY":0.00227416,"INCLINATION":98.693,"RA_OF_ASC_NODE":85.2764,"ARG_OF_PERICENTER":173.6674,"MEAN_ANOMALY":342.2065,"EPHEMERIS_TYPE":0,"CLASSIFICATION_TYPE":"U","NORAD_CAT_ID":31182,"ELEMENT_SET_NO":999,"REV_AT_EPOCH":97674,"BSTAR":0.00043881603,"MEAN_MOTION_DOT":8.04e-6,"MEAN_MOTION_DDOT":0},{"OBJECT_NAME":"FENGYUN 1C DEB","OBJECT_ID":"1999-025BJM","EPOCH":"2026-04-03T11:39:34.748640","MEAN_MOTION":14.51751462,"ECCENTRICITY":0.00468496,"INCLINATION":99.0456,"RA_OF_ASC_NODE":90.5375,"ARG_OF_PERICENTER":131.6971,"MEAN_ANOMALY":20.7923,"EPHEMERIS_TYPE":0,"CLASSIFICATION_TYPE":"U","NORAD_CAT_ID":31183,"ELEMENT_SET_NO":999,"REV_AT_EPOCH":99103,"BSTAR":0.0020400364,"MEAN_MOTION_DOT":8.272e-5,"MEAN_MOTION_DDOT":0},{"OBJECT_NAME":"FENGYUN 1C DEB","OBJECT_ID":"1999-025BJP","EPOCH":"2026-04-03T05:26:27.624768","MEAN_MOTION":14.03089813,"ECCENTRICITY":0.0041009,"INCLINATION":98.8395,"RA_OF_ASC_NODE":91.4538,"ARG_OF_PERICENTER":154.0066,"MEAN_ANOMALY":206.3172,"EPHEMERIS_TYPE":0,"CLASSIFICATION_TYPE":"U","NORAD_CAT_ID":31185,"ELEMENT_SET_NO":999,"REV_AT_EPOCH":63900,"BSTAR":0.00013587,"MEAN_MOTION_DOT":1.7e-6,"MEAN_MOTION_DDOT":0},{"OBJECT_NAME":"FENGYUN 1C DEB","OBJECT_ID":"1999-025BJQ","EPOCH":"2026-04-03T13:44:38.873760","MEAN_MOTION":14.13122848,"ECCENTRICITY":0.0026331,"INCLINATION":99.1808,"RA_OF_ASC_NODE":16.7361,"ARG_OF_PERICENTER":107.5628,"MEAN_ANOMALY":69.7844,"EPHEMERIS_TYPE":0,"CLASSIFICATION_TYPE":"U","NORAD_CAT_ID":31186,"ELEMENT_SET_NO":999,"REV_AT_EPOCH":97684,"BSTAR":0.00062613,"MEAN_MOTION_DOT":1.128e-5,"MEAN_MOTION_DDOT":0},{"OBJECT_NAME":"FENGYUN 1C DEB","OBJECT_ID":"1999-025BJR","EPOCH":"2026-04-02T09:12:02.094912","MEAN_MOTION":14.6370803,"ECCENTRICITY":0.02072547,"INCLINATION":99.233,"RA_OF_ASC_NODE":333.8002,"ARG_OF_PERICENTER":247.9161,"MEAN_ANOMALY":109.9916,"EPHEMERIS_TYPE":0,"CLASSIFICATION_TYPE":"U","NORAD_CAT_ID":31187,"ELEMENT_SET_NO":999,"REV_AT_EPOCH":70716,"BSTAR":0.0031194743,"MEAN_MOTION_DOT":0.00022212,"MEAN_MOTION_DDOT":0},{"OBJECT_NAME":"FENGYUN 1C DEB","OBJECT_ID":"1999-025BJS","EPOCH":"2026-04-03T20:31:45.663168","MEAN_MOTION":14.24634914,"ECCENTRICITY":0.00571961,"INCLINATION":98.7347,"RA_OF_ASC_NODE":166.0787,"ARG_OF_PERICENTER":284.4861,"MEAN_ANOMALY":139.9578,"EPHEMERIS_TYPE":0,"CLASSIFICATION_TYPE":"U","NORAD_CAT_ID":31188,"ELEMENT_SET_NO":999,"REV_AT_EPOCH":97932,"BSTAR":0.0021666686,"MEAN_MOTION_DOT":5.08e-5,"MEAN_MOTION_DDOT":0},{"OBJECT_NAME":"FENGYUN 1C DEB","OBJECT_ID":"1999-025BJU","EPOCH":"2026-04-02T07:28:57.129312","MEAN_MOTION":14.03883209,"ECCENTRICITY":0.00665294,"INCLINATION":98.8159,"RA_OF_ASC_NODE":106.7237,"ARG_OF_PERICENTER":311.0127,"MEAN_ANOMALY":48.53,"EPHEMERIS_TYPE":0,"CLASSIFICATION_TYPE":"U","NORAD_CAT_ID":31190,"ELEMENT_SET_NO":999,"REV_AT_EPOCH":97098,"BSTAR":0.00095319442,"MEAN_MOTION_DOT":1.49e-5,"MEAN_MOTION_DDOT":0},{"OBJECT_NAME":"FENGYUN 1C DEB","OBJECT_ID":"1999-025BJV","EPOCH":"2026-04-04T06:35:22.390944","MEAN_MOTION":14.41115487,"ECCENTRICITY":0.00914009,"INCLINATION":98.7771,"RA_OF_ASC_NODE":3.182,"ARG_OF_PERICENTER":219.803,"MEAN_ANOMALY":139.643,"EPHEMERIS_TYPE":0,"CLASSIFICATION_TYPE":"U","NORAD_CAT_ID":31191,"ELEMENT_SET_NO":999,"REV_AT_EPOCH":99633,"BSTAR":0.00045591159,"MEAN_MOTION_DOT":1.494e-5,"MEAN_MOTION_DDOT":0},{"OBJECT_NAME":"FENGYUN 1C DEB","OBJECT_ID":"1999-025BJW","EPOCH":"2026-04-03T09:29:58.517952","MEAN_MOTION":14.21323695,"ECCENTRICITY":0.02582004,"INCLINATION":98.5675,"RA_OF_ASC_NODE":78.7908,"ARG_OF_PERICENTER":139.4558,"MEAN_ANOMALY":222.6172,"EPHEMERIS_TYPE":0,"CLASSIFICATION_TYPE":"U","NORAD_CAT_ID":31192,"ELEMENT_SET_NO":999,"REV_AT_EPOCH":98329,"BSTAR":0.00040005333,"MEAN_MOTION_DOT":1.178e-5,"MEAN_MOTION_DDOT":0},{"OBJECT_NAME":"FENGYUN 1C DEB","OBJECT_ID":"1999-025BJY","EPOCH":"2026-04-03T03:43:19.734528","MEAN_MOTION":14.37333988,"ECCENTRICITY":0.00570542,"INCLINATION":98.9567,"RA_OF_ASC_NODE":351.7886,"ARG_OF_PERICENTER":311.8009,"MEAN_ANOMALY":47.831,"EPHEMERIS_TYPE":0,"CLASSIFICATION_TYPE":"U","NORAD_CAT_ID":31194,"ELEMENT_SET_NO":999,"REV_AT_EPOCH":98727,"BSTAR":0.0014253943,"MEAN_MOTION_DOT":4.289e-5,"MEAN_MOTION_DDOT":0},{"OBJECT_NAME":"FENGYUN 1C DEB","OBJECT_ID":"1999-025BJZ","EPOCH":"2026-04-03T08:33:57.992544","MEAN_MOTION":14.08045566,"ECCENTRICITY":0.0170984,"INCLINATION":98.7631,"RA_OF_ASC_NODE":128.5957,"ARG_OF_PERICENTER":226.3249,"MEAN_ANOMALY":132.3643,"EPHEMERIS_TYPE":0,"CLASSIFICATION_TYPE":"U","NORAD_CAT_ID":31195,"ELEMENT_SET_NO":999,"REV_AT_EPOCH":97669,"BSTAR":0.00013835544,"MEAN_MOTION_DOT":2.26e-6,"MEAN_MOTION_DDOT":0},{"OBJECT_NAME":"FENGYUN 1C DEB","OBJECT_ID":"1999-025BKA","EPOCH":"2026-04-02T18:18:25.750656","MEAN_MOTION":14.25769814,"ECCENTRICITY":0.00567854,"INCLINATION":98.5231,"RA_OF_ASC_NODE":107.9309,"ARG_OF_PERICENTER":247.679,"MEAN_ANOMALY":111.8364,"EPHEMERIS_TYPE":0,"CLASSIFICATION_TYPE":"U","NORAD_CAT_ID":31196,"ELEMENT_SET_NO":999,"REV_AT_EPOCH":65077,"BSTAR":0.00050227172,"MEAN_MOTION_DOT":1.17e-5,"MEAN_MOTION_DDOT":0},{"OBJECT_NAME":"FENGYUN 1C DEB","OBJECT_ID":"1999-025BKC","EPOCH":"2026-04-02T12:09:31.200768","MEAN_MOTION":13.75554857,"ECCENTRICITY":0.02048008,"INCLINATION":98.608,"RA_OF_ASC_NODE":190.7815,"ARG_OF_PERICENTER":54.1683,"MEAN_ANOMALY":307.8306,"EPHEMERIS_TYPE":0,"CLASSIFICATION_TYPE":"U","NORAD_CAT_ID":31198,"ELEMENT_SET_NO":999,"REV_AT_EPOCH":64276,"BSTAR":9.9323847e-5,"MEAN_MOTION_DOT":7.5e-7,"MEAN_MOTION_DDOT":0},{"OBJECT_NAME":"FENGYUN 1C DEB","OBJECT_ID":"1999-025BKD","EPOCH":"2026-04-02T21:32:29.658336","MEAN_MOTION":14.10077233,"ECCENTRICITY":0.0063338,"INCLINATION":98.7295,"RA_OF_ASC_NODE":77.2877,"ARG_OF_PERICENTER":305.5512,"MEAN_ANOMALY":83.9788,"EPHEMERIS_TYPE":0,"CLASSIFICATION_TYPE":"U","NORAD_CAT_ID":31199,"ELEMENT_SET_NO":999,"REV_AT_EPOCH":97726,"BSTAR":0.00028080163,"MEAN_MOTION_DOT":4.62e-6,"MEAN_MOTION_DDOT":0},{"OBJECT_NAME":"FENGYUN 1C DEB","OBJECT_ID":"1999-025BKF","EPOCH":"2026-04-04T13:59:58.779744","MEAN_MOTION":14.35833556,"ECCENTRICITY":0.0141634,"INCLINATION":98.9927,"RA_OF_ASC_NODE":325.3504,"ARG_OF_PERICENTER":20.6534,"MEAN_ANOMALY":40.8034,"EPHEMERIS_TYPE":0,"CLASSIFICATION_TYPE":"U","NORAD_CAT_ID":31201,"ELEMENT_SET_NO":999,"REV_AT_EPOCH":98870,"BSTAR":0.0010664,"MEAN_MOTION_DOT":3.412e-5,"MEAN_MOTION_DDOT":0},{"OBJECT_NAME":"FENGYUN 1C DEB","OBJECT_ID":"1999-025BKG","EPOCH":"2026-04-02T08:10:48.267552","MEAN_MOTION":14.86131162,"ECCENTRICITY":0.00671344,"INCLINATION":96.5577,"RA_OF_ASC_NODE":123.2326,"ARG_OF_PERICENTER":163.5885,"MEAN_ANOMALY":213.101,"EPHEMERIS_TYPE":0,"CLASSIFICATION_TYPE":"U","NORAD_CAT_ID":31202,"ELEMENT_SET_NO":999,"REV_AT_EPOCH":718,"BSTAR":0.0016418548,"MEAN_MOTION_DOT":0.00014975,"MEAN_MOTION_DDOT":0}]
