FENGYUN 1C DEB          
1 31182U 99025BJL 26094.43965819  .00000804  00000+0  43882-3 0  9995
2 31182  98.6930  85.2764 0022741 173.6674 342.2065 14.14735932976748
FENGYUN 1C DEB          
1 31183U 99025BJM 26093.48581885  .00008272  00000+0  20400-2 0  9994
2 31183  99.0456  90.5375 0046849 131.6971  20.7923 14.51751462991030
FENGYUN 1C DEB          
1 31185U 99025BJP 26093.22670862  .00000170  00000+0  13587-3 0  9990
2 31185  98.8395  91.4538 0041009 154.0066 206.3172 14.03089813639004
FENGYUN 1C DEB          
1 31186U 99025BJQ 26093.57267215  .00001128  00000+0  62613-3 0  9991
2 31186  99.1808  16.7361 0026331 107.5628  69.7844 14.13122848976840
FENGYUN 1C DEB          
1 31187U 99025BJR 26092.38335758  .00022212  00000+0  31195-2 0  9995
2 31187  99.2330 333.8002 0207254 247.9161 109.9916 14.63708030707165
FENGYUN 1C DEB          
1 31188U 99025BJS 26093.85538962  .00005080  00000+0  21667-2 0  9998
2 31188  98.7347 166.0787 0057196 284.4861 139.9578 14.24634914979327
FENGYUN 1C DEB          
1 31190U 99025BJU 26092.31177233  .00001490  00000+0  95319-3 0  9998
2 31190  98.8159 106.7237 0066529 311.0127  48.5300 14.03883209970986
FENGYUN 1C DEB          
1 31191U 99025BJV 26094.27456471  .00001494  00000+0  45591-3 0  9991
2 31191  98.7771   3.1820 0091400 219.8030 139.6430 14.41115487996339
FENGYUN 1C DEB          
1 31192U 99025BJW 26093.39581618  .00001178  00000+0  40005-3 0  9990
2 31192  98.5675  78.7908 0258200 139.4558 222.6172 14.21323695983298
FENGYUN 1C DEB          
1 31194U 99025BJY 26093.15508952  .00004289  00000+0  14254-2 0  9998
2 31194  98.9567 351.7886 0057054 311.8009  47.8310 14.37333988987270
FENGYUN 1C DEB          
1 31195U 99025BJZ 26093.35692121  .00000226  00000+0  13836-3 0  9996
2 31195  98.7631 128.5957 0170984 226.3249 132.3643 14.08045566976697
FENGYUN 1C DEB          
1 31196U 99025BKA 26092.76279804  .00001170  00000+0  50227-3 0  9994
2 31196  98.5231 107.9309 0056785 247.6790 111.8364 14.25769814650771
FENGYUN 1C DEB          
1 31198U 99025BKC 26092.50661112  .00000075  00000+0  99324-4 0  9990
2 31198  98.6080 190.7815 0204800  54.1683 307.8306 13.75554857642769
FENGYUN 1C DEB          
1 31199U 99025BKD 26092.89756549  .00000462  00000+0  28080-3 0  9992
2 31199  98.7295  77.2877 0063338 305.5512  83.9788 14.10077233977269
FENGYUN 1C DEB          
1 31201U 99025BKF 26094.58331921  .00003412  00000+0  10664-2 0  9993
2 31201  98.9927 325.3504 0141634  20.6534  40.8034 14.35833556988708
FENGYUN 1C DEB          
1 31202U 99025BKG 26092.34083643  .00014975  00000+0  16419-2 0  9991
2 31202  96.5577 123.2326 0067134 163.5885 213.1010 14.86131162  7182
